IRIDIUM 119             
1 42959U 17061E   24084.50947360  .00001314  00000+0  46208-3 0  9997
2 42959  86.4032   5.6986 0002256  90.7618 269.3836 14.34220873338043
IRIDIUM 107             
1 42960U 17061F   24084.31918557  .00000825  00000+0  28758-3 0  9990
2 42960  86.4034   5.7942 0002502  87.0447 273.1035 14.34225673338028
IRIDIUM 132             
1 42961U 17061G   24084.32553813  .00000177  00000+0  56269-4 0  9991
2 42961  86.4033   5.7769 0002357  87.1842 272.9624 14.34218715338023
IRIDIUM 136             
1 42962U 17061H   24084.49677434  .00000962  00000+0  33631-3 0  9995
2 42962  86.4035   5.7085 0002028  92.6490 267.4938 14.34226997338064
IRIDIUM 139             
1 42963U 17061J   24084.29382555  .00000993  00000+0  34732-3 0  9998
2 42963  86.4036   5.8416 0002413  89.5030 270.6442 14.34219936338047
IRIDIUM 125             
1 42964U 17061K   24084.49044492  .00001689  00000+0  59580-3 0  9997
2 42964  86.4035   5.8057 0002331  92.5267 267.6196 14.34221260338082
IRIDIUM 135             
1 43070U 17083A   24084.60410677  .00000867  00000+0  30263-3 0  9999
2 43070  86.3935 302.4608 0002182  76.8759 283.2680 14.34221811327398
IRIDIUM 138             
1 43071U 17083B   24084.62947708  .00000890  00000+0  31053-3 0  9996
2 43071  86.3925 302.1779 0002143  94.0892 266.0549 14.34221450327382
